0 DELTA 1 DEB
1 09979U 73086GJ  13280.29785356  .00001266  00000-0  19059-1 0  9391
2 09979 101.9418 209.8113 0603726 075.5099 070.6194 11.49406284873973
0 DELTA 1 DEB
1 09979U 73086GJ  13281.75650765  .00001287  00000-0  19357-1 0  9404
2 09979 101.9422 211.0183 0604043 073.2207 346.3308 11.49410063874149
0 DELTA 1 DEB
1 09979U 73086GJ  13283.68395959  .00001245  00000-0  18739-1 0  9417
2 09979 101.9426 212.6120 0604029 070.1889 041.9096 11.49415846874367
0 DELTA 1 DEB
1 09979U 73086GJ  13286.71949329  .00001321  00000-0  19809-1 0  9436
2 09979 101.9447 215.1304 0605387 065.4730 002.6260 11.49424427874713
0 DELTA 1 DEB
1 09979U 73086GJ  13287.76154476  .00001289  00000-0  19341-1 0  9448
2 09979 101.9449 215.9930 0605653 063.8454 354.5458 11.49426129874831
0 DELTA 1 DEB
1 09979U 73086GJ  13289.26359642  .00001244  00000-0  18668-1 0  9450
2 09979 101.9450 217.2365 0605955 061.4989 089.9290 11.49430673875004
0 DELTA 1 DEB
1 09979U 73086GJ  13290.30695508  .00001201  00000-0  18035-1 0  9463
2 09979 101.9451 218.1005 0606221 059.8694 087.2836 11.49432171875122
0 DELTA 1 DEB
1 09979U 73086GJ  13292.30949396  .00001257  00000-0  18844-1 0  9472
2 09979 101.9448 219.7586 0606502 056.7391 093.6998 11.49438121875357
0 DELTA 1 DEB
1 09979U 73086GJ  13293.76021633  .00001237  00000-0  18541-1 0  9481
2 09979 101.9447 220.9598 0606833 054.4756 336.7408 11.49440949875527
